#aV2009  1  8  0  0   .00000000      96 DD+AD WGS84 FIT  NGA
## 1513 345600.00000000   900.00000000 54839  .0000000000000
+   31     2  3  4  5  6  7  8  9 10 11 12 13 14 15 16 17 18
+         19 20 21 22 23 24 25 26 27 28 29 30 31 32  0  0  0
+          0  0  0  0  0  0  0  0  0  0  0  0  0  0  0  0  0
+          0  0  0  0  0  0  0  0  0  0  0  0  0  0  0  0  0
+          0  0  0  0  0  0  0  0  0  0  0  0  0  0  0  0  0
++         0  0  0  0  0  0  0  0  0  0  0  0  0  0  0  0  0
++         0  0  0  0  0  0  0  0  0  0  0  0  0  0  0  0  0
++         0  0  0  0  0  0  0  0  0  0  0  0  0  0  0  0  0
++         0  0  0  0  0  0  0  0  0  0  0  0  0  0  0  0  0
++         0  0  0  0  0  0  0  0  0  0  0  0  0  0  0  0  0
%c cc cc ccc ccc cccc cccc cccc cccc ccccc ccccc ccccc ccccc
%c cc cc ccc ccc cccc cccc cccc cccc ccccc ccccc ccccc ccccc
%f  0.0000000  0.000000000  0.00000000000  0.000000000000000
%f  0.0000000  0.000000000  0.00000000000  0.000000000000000
%i    0    0    0    0      0      0      0      0         0
%i    0    0    0    0      0      0      0      0         0
/*      NGA, ST. LOUIS,MO.                                  
/*   EPHEMERIS COMPUTED FROM  3 DAYS OF DATA                
/* CCCCCCCCCCCCCCCCCCCCCCCCCCCCCCCCCCCCCCCCCCCCCCCCCCCCCCCCC
/* CCCCCCCCCCCCCCCCCCCCCCCCCCCCCCCCCCCCCCCCCCCCCCCCCCCCCCCCC
*  2009  1  8  8 15   .00000000                                                 
P  2 -16856.477020  13432.478995  15134.375691    162.696026                    
V  2 -19837.086574     -7.164864 -22290.113536      -.019208                    
P  3  10143.087673 -23979.306911   3885.783941    335.928010                    
V  3   2494.202754   6340.786746  30656.322946       .052836                    
P  4 -25882.936771   5700.377824   3586.384154   -292.347006                    
V  4  -5003.561012  -2520.728329 -30634.508365      -.132953                    
P  5  14433.336187  21726.508481  -5639.095169   -510.392135                    
V  5  -6838.437240  -2923.156312 -30238.859526      -.627424                    
P  6  14076.120468 -21135.908101   7930.507991     98.999021                    
V  6   -229.770914  10438.783660  28927.445264      -.117326                    
P  7 -20394.400083  -7968.099682  15093.132420     23.418840                    
V  7  18760.914520  -4235.879561  22981.234881      -.001384                    
P  8 -26629.539781   -340.142330   3221.850455   -185.456115                    
V  8   3981.165979  -1833.424464  31648.003095      -.016112                    
P  9   4071.404816  14728.043953 -22373.882072     33.884044                    
V  9 -26468.181667   4341.034303  -1908.742932       .020097                    
P 10  -4738.027007  16931.946095  19655.542464     -9.191064                    
V 10 -15961.884111 -19789.792511  13432.820646      -.005370                    
P 11  -7035.823907 -15341.757541 -20716.870368     11.136446                    
V 11  24741.058290  -8609.794549  -1689.229904      -.010460                    
P 12  10566.894597  23099.137963  -7865.925675   -327.372577                    
V 12  -7967.163933  -6589.131730 -29673.227747       .032198                    
P 13  -8982.925214 -13029.036470  21218.411962    284.175607                    
V 13  12306.142887 -24171.122225  -9569.125793       .014142                    
P 14  17168.487633  -8721.633726 -18118.903702   -171.150577                    
V 14  -8662.793523  21592.880671 -18580.679810       .051091                    
P 15  -5088.197528  25156.281770  -6714.828747   -238.980712                    
V 15  -5856.563472   6888.225037  30142.259508      -.057017                    
P 16   9992.160577 -11677.642365  21701.669010     83.494104                    
V 16  16468.359816  21921.665162   4440.422679      -.026398                    
P 17 -17238.822038   5611.970812 -19298.569505     43.746367                    
V 17   8616.091993 -23164.072329 -14577.359357       .008959                    
P 18  19559.754045  15110.264392  -9987.524657    -95.161131                    
V 18   5238.270603  12091.020736  27602.181515       .037037                    
P 19   5692.781956 -24378.189599  -8468.443709     34.087103                    
V 19   7526.630887  -8414.031929  29283.053583      -.004605                    
P 20 -12929.983409 -22618.848993  -5414.517248     94.234622                    
V 20   6670.172048   3299.959559 -30348.758751      -.010257                    
P 21  23825.638427   5808.174259  11165.193857     34.843043                    
V 21 -13340.121235   3998.794032  26309.341162      -.017251                    
P 22  18806.556937   3760.071514 -18240.000405    206.944445                    
V 22  12020.017004  20299.437994  16378.335617      -.007462                    
P 23  -3304.775507 -20586.168235  16246.561428    384.614469                    
V 23   9863.950820 -18409.076067 -21518.238574       .008274                    
P 24  10858.625558  13593.140982  20132.344084    155.892417                    
V 24 -25204.456973   3143.990514  11819.608577       .029548                    
P 25 -14122.630120 -10930.461510  19959.843235    158.953619                    
V 25  23766.023202  -6454.352810  13707.195664       .269425                    
P 26 -10353.365192  24105.289672  -1771.480611     34.198973                    
V 26  -2712.674623    529.244223  32713.333964       .035543                    
P 27 -26375.812496   3051.398751   2672.326403     14.513444                    
V 27   2091.868962  -2726.130844  31707.403763       .031691                    
P 28 -19092.715356  -6458.402288 -17056.639075    -23.778144                    
V 28 -11685.719565 -19081.437578  19506.993345       .000160                    
P 29   9316.387293  14285.553421  20472.893988    -19.654306                    
V 29 -11414.862976  23113.641006 -10953.500818       .026322                    
P 30  18453.875272  18844.457431   3129.589139    118.502256                    
V 30    446.100823   5346.352301 -31152.711686       .023199                    
P 31  24656.144462  -7730.932400   6624.995698    -46.842794                    
V 31   8315.550870   1203.905312 -30415.807419      -.015520                    
P 32  -5748.824024 -23379.401730 -11052.315272    304.980493                    
V 32   9665.604773  11133.753509 -27326.411517      -.025540                    
EOF
